0 SL-14 R/B
1 14148U 83061B   13282.75127807  .00000324  00000-0  37279-4 0  4580
2 14148 082.5171 090.0840 0023491 089.8139 038.9976 14.82394117635299
0 SL-14 R/B
1 14148U 83061B   13286.17955978  .00000320  00000-0  36762-4 0  4603
2 14148 082.5175 086.8765 0023382 079.1954 333.7695 14.82396691635808
0 SL-14 R/B
1 14148U 83061B   13287.46189072  .00000380  00000-0  44304-4 0  4618
2 14148 082.5177 085.6767 0023293 075.1596 336.9066 14.82397669635991
0 SL-14 R/B
1 14148U 83061B   13288.47457013  .00000545  00000-0  64841-4 0  4625
2 14148 082.5180 084.7293 0023278 072.0365 340.9945 14.82398849636142
0 SL-14 R/B
1 14148U 83061B   13289.48299067  .00000380  00000-0  44228-4 0  4635
2 14148 082.5183 083.7859 0023220 068.8983 322.3842 14.82400145636297
0 SL-14 R/B
1 14148U 83061B   13290.51024207  .00000446  00000-0  52410-4 0  4649
2 14148 082.5185 082.8249 0023167 065.6710 044.3006 14.82401026636444
0 SL-14 R/B
1 14148U 83061B   13291.51413872  .00000464  00000-0  54767-4 0  4658
2 14148 082.5186 081.8858 0023103 062.5487 001.5583 14.82401620636598
0 SL-14 R/B
1 14148U 83061B   13292.52693321  .00000514  00000-0  60973-4 0  4662
2 14148 082.5187 080.9383 0023024 059.3410 006.3589 14.82402261636742
0 SL-14 R/B
1 14148U 83061B   13293.81808722  .00000544  00000-0  64700-4 0  4674
2 14148 082.5188 079.7306 0022945 055.2904 056.5945 14.82403334636934
0 SL-14 R/B
1 14148U 83061B   13294.97072266  .00000542  00000-0  64485-4 0  4687
2 14148 082.5189 078.6524 0022863 051.6813 087.6242 14.82404568637108
0 SL-14 R/B
1 14148U 83061B   13295.98288791  .00000568  00000-0  67670-4 0  4699
2 14148 082.5189 077.7056 0022792 048.4987 089.0542 14.82405936637250
